OBJECT A                
1 44879U 19093A   21029.05618297  .00000228  00000-0  35743-4 0  9994
2 44879  97.9395 109.3341 0015795  30.0432 330.1690 14.81543003 60104
OBJECT B                
1 44880U 19093B   21029.05480182  .00000196  00000-0  31758-4 0  9992
2 44880  97.9395 109.3464 0015868  30.8340 329.3808 14.81525786 60096
CAS-6 (TIANQIN 1)       
1 44881U 19093C   21029.12573117 -.00000346  00000-0 -37303-4 0  9993
2 44881  97.9378 109.3946 0015579  31.7790 328.4351 14.81418455 60100
OBJECT D                
1 44882U 19093D   21029.09830025  .00000306  00000-0  45655-4 0  9997
2 44882  97.9437 109.6277 0016873  31.7492 328.4737 14.81646795 60102
CBERS 4A                
1 44883U 19093E   21029.09875163  .00000128  00000-0  23080-4 0  9990
2 44883  97.9395 109.4618 0001574  88.5802 271.5587 14.81524218 60117
OBJECT F                
1 44884U 19093F   21029.14616274  .00000252  00000-0  38548-4 0  9996
2 44884  97.9385 109.5940 0014414  37.1771 323.0440 14.81955473 60121
FLORIPASAT-1            
1 44885U 19093G   21029.02013165  .00000307  00000-0  45131-4 0  9991
2 44885  97.9394 109.6805 0015393  39.6925 320.5413 14.82187081 60112
OBJECT H                
1 44886U 19093H   21029.06212926  .00000226  00000-0  34806-4 0  9999
2 44886  97.9414 110.0229 0016142  44.7535 315.4985 14.82493721 60139
OBJECT J                
1 44887U 19093J   21029.06701955  .00000123  00000-0  21956-4 0  9993
2 44887  97.9402 109.9870 0016046  44.1020 316.1476 14.82446586 60132
CZ-4B R/B               
1 44888U 19093K   21028.70646614  .00000793  00000-0  42952-4 0  9996
2 44888  97.8540 123.2503 0124551  78.1475 283.3690 15.11417294 61253
OBJECT L                
1 44889U 19093L   21029.02716886  .00000144  00000-0  25482-4 0  9991
2 44889  97.9363 108.7517 0015937  22.2856 337.9048 14.80883019 59999
OBJECT M                
1 44890U 19093M   21029.19273814  .00000534  00000-0  66493-4 0  9990
2 44890  97.8897 109.5994 0049229  40.3421 320.1479 14.85814976 60209
OBJECT N                
1 44891U 19093N   21029.08487651  .00000591  00000-0  72935-4 0  9996
2 44891  98.0014 115.3929 0025883 140.4576 219.8530 14.86433724 60212
